{"type": "FeatureCollection", "features": [ {"type": "Feature", "properties": {"norad_id": 37834, "name": "INTELSAT 18 (IS-18)", "group": "intelsat", "lat": -0.008622230726866388, "lon": 166.617990725934, "alt_km": 35790.104226602554, "timestamp": "2025-12-24T16:52:41.168776+00:00", "meta": {"OBJECT_NAME": "INTELSAT 18 (IS-18)", "OBJECT_ID": "2011-056A", "EPOCH": "2025-12-24T06:00:16.855776", "MEAN_MOTION": 1.00271571, "ECCENTRICITY": 0.00017959, "INCLINATION": 0.0236, "RA_OF_ASC_NODE": 287.3564, "ARG_OF_PERICENTER": 1.0797, "MEAN_ANOMALY": 74.6583, "EPHEMERIS_TYPE": 0, "CLASSIFICATION_TYPE": "U", "NORAD_CAT_ID": 37834, "ELEMENT_SET_NO": 999, "REV_AT_EPOCH": 5205, "BSTAR": 0, "MEAN_MOTION_DOT": 7.4e-07, "MEAN_MOTION_DDOT": 0}, "tle": {"line1": "1 37834U 11056A   25358.25019509  .00000074  00000+0  00000+0 0  9991", "line2": "2 37834   0.0236 287.3564 0001795   1.0797  74.6583  1.00271571 52058"}}, "geometry": {"type": "Point", "coordinates": [166.617990725934, -0.008622230726866388]}}, {"type": "Feature", "properties": {"norad_id": 38098, "name": "INTELSAT 22 (IS-22)", "group": "intelsat", "lat": 0.020270208160318517, "lon": 58.74153029871429, "alt_km": 35790.86358421184, "timestamp": "2025-12-24T16:52:41.168788+00:00", "meta": {"OBJECT_NAME": "INTELSAT 22 (IS-22)", "OBJECT_ID": "2012-011A", "EPOCH": "2025-12-24T01:56:51.561312", "MEAN_MOTION": 1.00270449, "ECCENTRICITY": 0.00019329, "INCLINATION": 0.0277, "RA_OF_ASC_NODE": 43.4014, "ARG_OF_PERICENTER": 252.7744, "MEAN_ANOMALY": 257.9865, "EPHEMERIS_TYPE": 0, "CLASSIFICATION_TYPE": "U", "NORAD_CAT_ID": 38098, "ELEMENT_SET_NO": 999, "REV_AT_EPOCH": 543, "BSTAR": 0, "MEAN_MOTION_DOT": 0, "MEAN_MOTION_DDOT": 0}, "tle": {"line1": "1 38098U 12011A   25358.08115233  .00000000  00000+0  00000+0 0  9997", "line2": "2 38098   0.0277  43.4014 0001932 252.7744 257.9865  1.00270449  5439"}}, "geometry": {"type": "Point", "coordinates": [58.74153029871429, 0.020270208160318517]}}, {"type": "Feature", "properties": {"norad_id": 38356, "name": "INTELSAT 19 (IS-19)", "group": "intelsat", "lat": 0.0056098162231195915, "lon": 152.61531840741625, "alt_km": 35791.55899838928, "timestamp": "2025-12-24T16:52:41.168801+00:00", "meta": {"OBJECT_NAME": "INTELSAT 19 (IS-19)", "OBJECT_ID": "2012-030A", "EPOCH": "2025-12-24T05:19:49.790784", "MEAN_MOTION": 1.002721, "ECCENTRICITY": 0.00028904, "INCLINATION": 0.0139, "RA_OF_ASC_NODE": 323.1097, "ARG_OF_PERICENTER": 306.5362, "MEAN_ANOMALY": 69.3166, "EPHEMERIS_TYPE": 0, "CLASSIFICATION_TYPE": "U", "NORAD_CAT_ID": 38356, "ELEMENT_SET_NO": 999, "REV_AT_EPOCH": 4869, "BSTAR": 0, "MEAN_MOTION_DOT": -3.5e-07, "MEAN_MOTION_DDOT": 0}, "tle": {"line1": "1 38356U 12030A   25358.22210406 -.00000035  00000+0  00000+0 0  9998", "line2": "2 38356   0.0139 323.1097 0002890 306.5362  69.3166  1.00272100 48690"}}, "geometry": {"type": "Point", "coordinates": [152.61531840741625, 0.0056098162231195915]}}, {"type": "Feature", "properties": {"norad_id": 38740, "name": "INTELSAT 20 (IS-20)", "group": "intelsat", "lat": 0.008204136258065143, "lon": 55.10765400340718, "alt_km": 35793.18018405015, "timestamp": "2025-12-24T16:52:41.168814+00:00", "meta": {"OBJECT_NAME": "INTELSAT 20 (IS-20)", "OBJECT_ID": "2012-043A", "EPOCH": "2025-12-24T04:51:59.956992", "MEAN_MOTION": 1.00271701, "ECCENTRICITY": 0.00027221, "INCLINATION": 0.0113, "RA_OF_ASC_NODE": 58.3844, "ARG_OF_PERICENTER": 125.0984, "MEAN_ANOMALY": 50.9907, "EPHEMERIS_TYPE": 0, "CLASSIFICATION_TYPE": "U", "NORAD_CAT_ID": 38740, "ELEMENT_SET_NO": 999, "REV_AT_EPOCH": 4899, "BSTAR": 0, "MEAN_MOTION_DOT": -3e-08, "MEAN_MOTION_DDOT": 0}, "tle": {"line1": "1 38740U 12043A   25358.20277728 -.00000003  00000+0  00000+0 0  9992", "line2": "2 38740   0.0113  58.3844 0002722 125.0984  50.9907  1.00271701 48992"}}, "geometry": {"type": "Point", "coordinates": [55.10765400340718, 0.008204136258065143]}}, {"type": "Feature", "properties": {"norad_id": 38749, "name": "INTELSAT 21 (IS-21)", "group": "intelsat", "lat": -0.017041661343650323, "lon": -71.3404443757438, "alt_km": 35779.44515382152, "timestamp": "2025-12-24T16:52:41.168827+00:00", "meta": {"OBJECT_NAME": "INTELSAT 21 (IS-21)", "OBJECT_ID": "2012-045A", "EPOCH": "2025-12-24T05:58:31.084032", "MEAN_MOTION": 1.00273058, "ECCENTRICITY": 0.00016655, "INCLINATION": 0.0142, "RA_OF_ASC_NODE": 305.8684, "ARG_OF_PERICENTER": 316.6574, "MEAN_ANOMALY": 222.1401, "EPHEMERIS_TYPE": 0, "CLASSIFICATION_TYPE": "U", "NORAD_CAT_ID": 38749, "ELEMENT_SET_NO": 999, "REV_AT_EPOCH": 4877, "BSTAR": 0, "MEAN_MOTION_DOT": -2.64e-06, "MEAN_MOTION_DDOT": 0}, "tle": {"line1": "1 38749U 12045A   25358.24897088 -.00000264  00000+0  00000+0 0  9993", "line2": "2 38749   0.0142 305.8684 0001665 316.6574 222.1401  1.00273058 48778"}}, "geometry": {"type": "Point", "coordinates": [-71.3404443757438, -0.017041661343650323]}}, {"type": "Feature", "properties": {"norad_id": 38867, "name": "INTELSAT 23 (IS-23)", "group": "intelsat", "lat": -0.03372371132088797, "lon": -66.39083720887612, "alt_km": 35790.8584365817, "timestamp": "2025-12-24T16:52:41.168839+00:00", "meta": {"OBJECT_NAME": "INTELSAT 23 (IS-23)", "OBJECT_ID": "2012-057A", "EPOCH": "2025-12-24T06:00:30.893184", "MEAN_MOTION": 1.00259571, "ECCENTRICITY": 3.226e-05, "INCLINATION": 0.0157, "RA_OF_ASC_NODE": 47.8296, "ARG_OF_PERICENTER": 47.4441, "MEAN_ANOMALY": 34.8739, "EPHEMERIS_TYPE": 0, "CLASSIFICATION_TYPE": "U", "NORAD_CAT_ID": 38867, "ELEMENT_SET_NO": 999, "REV_AT_EPOCH": 4820, "BSTAR": 0, "MEAN_MOTION_DOT": -2.64e-06, "MEAN_MOTION_DDOT": 0}, "tle": {"line1": "1 38867U 12057A   25358.25035756 -.00000264  00000+0  00000+0 0  9994", "line2": "2 38867   0.0157  47.8296 0000322  47.4441  34.8739  1.00259571 48202"}}, "geometry": {"type": "Point", "coordinates": [-66.39083720887612, -0.03372371132088797]}}, {"type": "Feature", "properties": {"norad_id": 39360, "name": "FM-6", "group": "intelsat", "lat": -0.002587340593043113, "lon": -129.5107165731175, "alt_km": 35779.622011465304, "timestamp": "2025-12-24T16:52:41.168851+00:00", "meta": {"OBJECT_NAME": "FM-6", "OBJECT_ID": "2013-058A", "EPOCH": "2025-12-24T05:59:38.935680", "MEAN_MOTION": 1.00270521, "ECCENTRICITY": 0.00029846, "INCLINATION": 0.0166, "RA_OF_ASC_NODE": 70.249, "ARG_OF_PERICENTER": 103.1818, "MEAN_ANOMALY": 253.332, "EPHEMERIS_TYPE": 0, "CLASSIFICATION_TYPE": "U", "NORAD_CAT_ID": 39360, "ELEMENT_SET_NO": 999, "REV_AT_EPOCH": 4431, "BSTAR": 0, "MEAN_MOTION_DOT": 4e-08, "MEAN_MOTION_DDOT": 0}, "tle": {"line1": "1 39360U 13058A   25358.24975620  .00000004  00000+0  00000+0 0  9998", "line2": "2 39360   0.0166  70.2490 0002984 103.1818 253.3320  1.00270521 44311"}}, "geometry": {"type": "Point", "coordinates": [-129.5107165731175, -0.002587340593043113]}}, {"type": "Feature", "properties": {"norad_id": 40271, "name": "INTELSAT 30 (IS-30)", "group": "intelsat", "lat": -0.026994339874412833, "lon": -108.41410841860903, "alt_km": 35792.84082760486, "timestamp": "2025-12-24T16:52:41.168863+00:00", "meta": {"OBJECT_NAME": "INTELSAT 30 (IS-30)", "OBJECT_ID": "2014-062A", "EPOCH": "2025-12-24T07:00:35.482176", "MEAN_MOTION": 1.00269786, "ECCENTRICITY": 0.00015421, "INCLINATION": 0.0134, "RA_OF_ASC_NODE": 27.2277, "ARG_OF_PERICENTER": 63.2332, "MEAN_ANOMALY": 12.6997, "EPHEMERIS_TYPE": 0, "CLASSIFICATION_TYPE": "U", "NORAD_CAT_ID": 40271, "ELEMENT_SET_NO": 999, "REV_AT_EPOCH": 504, "BSTAR": 0, "MEAN_MOTION_DOT": -1.3e-06, "MEAN_MOTION_DDOT": 0}, "tle": {"line1": "1 40271U 14062A   25358.29207734 -.00000130  00000+0  00000+0 0  9997", "line2": "2 40271   0.0134  27.2277 0001542  63.2332  12.6997  1.00269786  5044"}}, "geometry": {"type": "Point", "coordinates": [-108.41410841860903, -0.026994339874412833]}}, {"type": "Feature", "properties": {"norad_id": 40333, "name": "DIRECTV 14", "group": "intelsat", "lat": -0.015784673085234718, "lon": -112.58728228510647, "alt_km": 35788.80322004093, "timestamp": "2025-12-24T16:52:41.168875+00:00", "meta": {"OBJECT_NAME": "DIRECTV 14", "OBJECT_ID": "2014-078B", "EPOCH": "2025-12-24T05:46:54.695712", "MEAN_MOTION": 1.00265111, "ECCENTRICITY": 2.383e-05, "INCLINATION": 0.0019, "RA_OF_ASC_NODE": 34.998, "ARG_OF_PERICENTER": 66.4789, "MEAN_ANOMALY": 339.0525, "EPHEMERIS_TYPE": 0, "CLASSIFICATION_TYPE": "U", "NORAD_CAT_ID": 40333, "ELEMENT_SET_NO": 999, "REV_AT_EPOCH": 4028, "BSTAR": 0, "MEAN_MOTION_DOT": -1.04e-06, "MEAN_MOTION_DDOT": 0}, "tle": {"line1": "1 40333U 14078B   25358.24091083 -.00000104  00000+0  00000+0 0  9997", "line2": "2 40333   0.0019  34.9980 0000238  66.4789 339.0525  1.00265111 40289"}}, "geometry": {"type": "Point", "coordinates": [-112.58728228510647, -0.015784673085234718]}}, {"type": "Feature", "properties": {"norad_id": 40663, "name": "DIRECTV 15", "group": "intelsat", "lat": -0.03137347161609494, "lon": -116.24380192996463, "alt_km": 35786.602597057135, "timestamp": "2025-12-24T16:52:41.168887+00:00", "meta": {"OBJECT_NAME": "DIRECTV 15", "OBJECT_ID": "2015-026A", "EPOCH": "2025-12-24T05:45:47.302848", "MEAN_MOTION": 1.00268312, "ECCENTRICITY": 5.031e-05, "INCLINATION": 0.0214, "RA_OF_ASC_NODE": 20.6929, "ARG_OF_PERICENTER": 145.8822, "MEAN_ANOMALY": 270.0068, "EPHEMERIS_TYPE": 0, "CLASSIFICATION_TYPE": "U", "NORAD_CAT_ID": 40663, "ELEMENT_SET_NO": 999, "REV_AT_EPOCH": 3870, "BSTAR": 0, "MEAN_MOTION_DOT": 0, "MEAN_MOTION_DDOT": 0}, "tle": {"line1": "1 40663U 15026A   25358.24013082  .00000000  00000+0  00000+0 0  9994", "line2": "2 40663   0.0214  20.6929 0000503 145.8822 270.0068  1.00268312 38708"}}, "geometry": {"type": "Point", "coordinates": [-116.24380192996463, -0.03137347161609494]}}]}